<?xml version="1.0" encoding="UTF-8"?>
<kml xmlns="http://www.opengis.net/kml/2.2">
  <Document>
    <name>TuEats</name>
    <description/>
    <Style id="icon-1899-0288D1-nodesc-normal">
      <IconStyle>
        <color>ffd18802</color>
        <scale>1</scale>
        <Icon>
          <href>https://www.gstatic.com/mapspro/images/stock/503-wht-blank_maps.png</href>
        </Icon>
        <hotSpot x="32" xunits="pixels" y="64" yunits="insetPixels"/>
      </IconStyle>
      <LabelStyle>
        <scale>0</scale>
      </LabelStyle>
      <BalloonStyle>
        <text><![CDATA[<h3>$[name]</h3>]]></text>
      </BalloonStyle>
    </Style>
    <Style id="icon-1899-0288D1-nodesc-highlight">
      <IconStyle>
        <color>ffd18802</color>
        <scale>1</scale>
        <Icon>
          <href>https://www.gstatic.com/mapspro/images/stock/503-wht-blank_maps.png</href>
        </Icon>
        <hotSpot x="32" xunits="pixels" y="64" yunits="insetPixels"/>
      </IconStyle>
      <LabelStyle>
        <scale>1</scale>
      </LabelStyle>
      <BalloonStyle>
        <text><![CDATA[<h3>$[name]</h3>]]></text>
      </BalloonStyle>
    </Style>
    <StyleMap id="icon-1899-0288D1-nodesc">
      <Pair>
        <key>normal</key>
        <styleUrl>#icon-1899-0288D1-nodesc-normal</styleUrl>
      </Pair>
      <Pair>
        <key>highlight</key>
        <styleUrl>#icon-1899-0288D1-nodesc-highlight</styleUrl>
      </Pair>
    </StyleMap>
    <Folder>
      <name>Food Trucks</name>
      <Placemark>
        <name><![CDATA[Stella's]]></name>
        <styleUrl>#icon-1899-0288D1-nodesc</styleUrl>
        <Point>
          <coordinates>
            -75.1556002,39.9816613,0
          </coordinates>
        </Point>
      </Placemark>
      <Placemark>
        <name>Hot pretzels and Ground coffee</name>
        <styleUrl>#icon-1899-0288D1-nodesc</styleUrl>
        <Point>
          <coordinates>
            -75.1548851,39.9814779,0
          </coordinates>
        </Point>
      </Placemark>
      <Placemark>
        <name>7-Eleven</name>
        <styleUrl>#icon-1899-0288D1-nodesc</styleUrl>
        <Point>
          <coordinates>
            -75.1561167,39.9819744,0
          </coordinates>
        </Point>
      </Placemark>
      <Placemark>
        <name>Famous halal food</name>
        <styleUrl>#icon-1899-0288D1-nodesc</styleUrl>
        <Point>
          <coordinates>
            -75.1557481,39.979529,0
          </coordinates>
        </Point>
      </Placemark>
      <Placemark>
        <name>Mexican Grill Stand</name>
        <styleUrl>#icon-1899-0288D1-nodesc</styleUrl>
        <Point>
          <coordinates>
            -75.1557848,39.9792086,0
          </coordinates>
        </Point>
      </Placemark>
      <Placemark>
        <name>Sunny halal food</name>
        <styleUrl>#icon-1899-0288D1-nodesc</styleUrl>
        <Point>
          <coordinates>
            -75.1555263,39.9796937,0
          </coordinates>
        </Point>
      </Placemark>
      <Placemark>
        <name>Chick-fil-A</name>
        <styleUrl>#icon-1899-0288D1-nodesc</styleUrl>
        <Point>
          <coordinates>
            -75.1552626,39.9791364,0
          </coordinates>
        </Point>
      </Placemark>
      <Placemark>
        <name>BurgerFi</name>
        <styleUrl>#icon-1899-0288D1-nodesc</styleUrl>
        <Point>
          <coordinates>
            -75.1550992,39.9790436,0
          </coordinates>
        </Point>
      </Placemark>
      <Placemark>
        <name>Zen Japanese Food Fast at Temple University</name>
        <styleUrl>#icon-1899-0288D1-nodesc</styleUrl>
        <Point>
          <coordinates>
            -75.1549397,39.9792117,0
          </coordinates>
        </Point>
      </Placemark>
      <Placemark>
        <name>Saladworks</name>
        <styleUrl>#icon-1899-0288D1-nodesc</styleUrl>
        <Point>
          <coordinates>
            -75.1548576,39.9795505,0
          </coordinates>
        </Point>
      </Placemark>
      <Placemark>
        <name><![CDATA[Rock N Rolls (Food Truck 12th & Montgomery)]]></name>
        <styleUrl>#icon-1899-0288D1-nodesc</styleUrl>
        <Point>
          <coordinates>
            -75.1553568,39.9799443,0
          </coordinates>
        </Point>
      </Placemark>
      <Placemark>
        <name>Bagel Shop</name>
        <styleUrl>#icon-1899-0288D1-nodesc</styleUrl>
        <Point>
          <coordinates>
            -75.1546613,39.9799291,0
          </coordinates>
        </Point>
      </Placemark>
      <Placemark>
        <name>The Patty Wagon</name>
        <styleUrl>#icon-1899-0288D1-nodesc</styleUrl>
        <Point>
          <coordinates>
            -75.1550008,39.9798154,0
          </coordinates>
        </Point>
      </Placemark>
      <Placemark>
        <name>Zen Japanese Food Fast at Temple University</name>
        <styleUrl>#icon-1899-0288D1-nodesc</styleUrl>
        <Point>
          <coordinates>
            -75.1549397,39.9792117,0
          </coordinates>
        </Point>
      </Placemark>
      <Placemark>
        <name><![CDATA[Raising Cane's Chicken Fingers]]></name>
        <styleUrl>#icon-1899-0288D1-nodesc</styleUrl>
        <Point>
          <coordinates>
            -75.153783,39.9787035,0
          </coordinates>
        </Point>
      </Placemark>
      <Placemark>
        <name>Five Guys</name>
        <styleUrl>#icon-1899-0288D1-nodesc</styleUrl>
        <Point>
          <coordinates>
            -75.1536883,39.978824,0
          </coordinates>
        </Point>
      </Placemark>
      <Placemark>
        <name>CAVA</name>
        <styleUrl>#icon-1899-0288D1-nodesc</styleUrl>
        <Point>
          <coordinates>
            -75.1531219,39.9794007,0
          </coordinates>
        </Point>
      </Placemark>
      <Placemark>
        <name>Blaze Pizza</name>
        <styleUrl>#icon-1899-0288D1-nodesc</styleUrl>
        <Point>
          <coordinates>
            -75.1533789,39.9795051,0
          </coordinates>
        </Point>
      </Placemark>
      <Placemark>
        <name>Quickway Japanese Hibachi</name>
        <styleUrl>#icon-1899-0288D1-nodesc</styleUrl>
        <Point>
          <coordinates>
            -75.1535048,39.9795332,0
          </coordinates>
        </Point>
      </Placemark>
      <Placemark>
        <name><![CDATA[Eddie's Pizza]]></name>
        <styleUrl>#icon-1899-0288D1-nodesc</styleUrl>
        <Point>
          <coordinates>
            -75.1533643,39.980791,0
          </coordinates>
        </Point>
      </Placemark>
      <Placemark>
        <name>Hank’s</name>
        <styleUrl>#icon-1899-0288D1-nodesc</styleUrl>
        <Point>
          <coordinates>
            -75.1533351,39.9808264,0
          </coordinates>
        </Point>
      </Placemark>
      <Placemark>
        <name><![CDATA[Azteca's Mexican Grill]]></name>
        <styleUrl>#icon-1899-0288D1-nodesc</styleUrl>
        <Point>
          <coordinates>
            -75.153284,39.9809158,0
          </coordinates>
        </Point>
      </Placemark>
      <Placemark>
        <name><![CDATA[Tai's Vietnamese Food]]></name>
        <styleUrl>#icon-1899-0288D1-nodesc</styleUrl>
        <Point>
          <coordinates>
            -75.15331,39.9808625,0
          </coordinates>
        </Point>
      </Placemark>
      <Placemark>
        <name><![CDATA[Richie's Sandwich Shop]]></name>
        <styleUrl>#icon-1899-0288D1-nodesc</styleUrl>
        <Point>
          <coordinates>
            -75.1533119,39.9809517,0
          </coordinates>
        </Point>
      </Placemark>
      <Placemark>
        <name><![CDATA[Johny's Express]]></name>
        <styleUrl>#icon-1899-0288D1-nodesc</styleUrl>
        <Point>
          <coordinates>
            -75.1534102,39.9804796,0
          </coordinates>
        </Point>
      </Placemark>
      <Placemark>
        <name>Nanu’s Hot Chicken</name>
        <styleUrl>#icon-1899-0288D1-nodesc</styleUrl>
        <Point>
          <coordinates>
            -75.1565323,39.9799945,0
          </coordinates>
        </Point>
      </Placemark>
      <Placemark>
        <name>Brood Coffee Truck</name>
        <styleUrl>#icon-1899-0288D1-nodesc</styleUrl>
        <Point>
          <coordinates>
            -75.1561605,39.9801241,0
          </coordinates>
        </Point>
      </Placemark>
      <Placemark>
        <name><![CDATA[Fruit & Smoothie Truck]]></name>
        <styleUrl>#icon-1899-0288D1-nodesc</styleUrl>
        <Point>
          <coordinates>
            -75.1556961,39.9799613,0
          </coordinates>
        </Point>
      </Placemark>
      <Placemark>
        <name><![CDATA[Ernie's Lunch Truck]]></name>
        <styleUrl>#icon-1899-0288D1-nodesc</styleUrl>
        <Point>
          <coordinates>
            -75.155473,39.9799463,0
          </coordinates>
        </Point>
      </Placemark>
      <Placemark>
        <name>Hank’s Cafe</name>
        <styleUrl>#icon-1899-0288D1-nodesc</styleUrl>
        <Point>
          <coordinates>
            -75.1561342,39.9791883,0
          </coordinates>
        </Point>
      </Placemark>
      <Placemark>
        <name>Tropical Smoothie Cafe</name>
        <styleUrl>#icon-1899-0288D1-nodesc</styleUrl>
        <Point>
          <coordinates>
            -75.1584827,39.9778398,0
          </coordinates>
        </Point>
      </Placemark>
      <Placemark>
        <name>Chopsticks Express</name>
        <styleUrl>#icon-1899-0288D1-nodesc</styleUrl>
        <Point>
          <coordinates>
            -75.1582935,39.9778486,0
          </coordinates>
        </Point>
      </Placemark>
      <Placemark>
        <name>Oh Brother Philly</name>
        <styleUrl>#icon-1899-0288D1-nodesc</styleUrl>
        <Point>
          <coordinates>
            -75.1584557,39.9779704,0
          </coordinates>
        </Point>
      </Placemark>
      <Placemark>
        <name>QDOBA Mexican Eats</name>
        <styleUrl>#icon-1899-0288D1-nodesc</styleUrl>
        <Point>
          <coordinates>
            -75.158377,39.9785404,0
          </coordinates>
        </Point>
      </Placemark>
      <Placemark>
        <name><![CDATA[Dunkin']]></name>
        <styleUrl>#icon-1899-0288D1-nodesc</styleUrl>
        <Point>
          <coordinates>
            -75.1589889,39.978689,0
          </coordinates>
        </Point>
      </Placemark>
      <Placemark>
        <name><![CDATA[Hangry Joe’s Hot Chicken & Beer]]></name>
        <styleUrl>#icon-1899-0288D1-nodesc</styleUrl>
        <Point>
          <coordinates>
            -75.1590756,39.9786499,0
          </coordinates>
        </Point>
      </Placemark>
      <Placemark>
        <name><![CDATA[OWL Breakfast & Lunch]]></name>
        <styleUrl>#icon-1899-0288D1-nodesc</styleUrl>
        <Point>
          <coordinates>
            -75.1591569,39.978643,0
          </coordinates>
        </Point>
      </Placemark>
      <Placemark>
        <name>City View Pizza and Grill</name>
        <styleUrl>#icon-1899-0288D1-nodesc</styleUrl>
        <Point>
          <coordinates>
            -75.159476,39.978735,0
          </coordinates>
        </Point>
      </Placemark>
      <Placemark>
        <name>7-Eleven</name>
        <styleUrl>#icon-1899-0288D1-nodesc</styleUrl>
        <Point>
          <coordinates>
            -75.1596549,39.9790836,0
          </coordinates>
        </Point>
      </Placemark>
      <Placemark>
        <name>Maple Star</name>
        <styleUrl>#icon-1899-0288D1-nodesc</styleUrl>
        <Point>
          <coordinates>
            -75.1603996,39.9792368,0
          </coordinates>
        </Point>
      </Placemark>
      <Placemark>
        <name>Pub Webb</name>
        <styleUrl>#icon-1899-0288D1-nodesc</styleUrl>
        <Point>
          <coordinates>
            -75.1606044,39.9791459,0
          </coordinates>
        </Point>
      </Placemark>
      <Placemark>
        <name><![CDATA[Champ's Diner]]></name>
        <styleUrl>#icon-1899-0288D1-nodesc</styleUrl>
        <Point>
          <coordinates>
            -75.1610146,39.9792227,0
          </coordinates>
        </Point>
      </Placemark>
      <Placemark>
        <name>Shing Tea 79</name>
        <styleUrl>#icon-1899-0288D1-nodesc</styleUrl>
        <Point>
          <coordinates>
            -75.1612357,39.9793246,0
          </coordinates>
        </Point>
      </Placemark>
      <Placemark>
        <name>Pazzo Pazzo</name>
        <styleUrl>#icon-1899-0288D1-nodesc</styleUrl>
        <Point>
          <coordinates>
            -75.1617205,39.9789949,0
          </coordinates>
        </Point>
      </Placemark>
      <Placemark>
        <name>Pretzel Dough</name>
        <styleUrl>#icon-1899-0288D1-nodesc</styleUrl>
        <Point>
          <coordinates>
            -75.1622202,39.9786741,0
          </coordinates>
        </Point>
      </Placemark>
      <Placemark>
        <name>Fancy Halal Grill</name>
        <styleUrl>#icon-1899-0288D1-nodesc</styleUrl>
        <Point>
          <coordinates>
            -75.1627803,39.9794942,0
          </coordinates>
        </Point>
      </Placemark>
      <Placemark>
        <name>Columbia Diner</name>
        <styleUrl>#icon-1899-0288D1-nodesc</styleUrl>
        <Point>
          <coordinates>
            -75.1629625,39.9794385,0
          </coordinates>
        </Point>
      </Placemark>
      <Placemark>
        <name>Philly Fried Chicken (Halal)</name>
        <styleUrl>#icon-1899-0288D1-nodesc</styleUrl>
        <Point>
          <coordinates>
            -75.1632878,39.9792021,0
          </coordinates>
        </Point>
      </Placemark>
      <Placemark>
        <name>Maple Star</name>
        <styleUrl>#icon-1899-0288D1-nodesc</styleUrl>
        <Point>
          <coordinates>
            -75.1603996,39.9792368,0
          </coordinates>
        </Point>
      </Placemark>
      <Placemark>
        <name>Chick-fil-A</name>
        <styleUrl>#icon-1899-0288D1-nodesc</styleUrl>
        <Point>
          <coordinates>
            -75.1576886,39.978007,0
          </coordinates>
        </Point>
      </Placemark>
      <Placemark>
        <name>Panda Express</name>
        <styleUrl>#icon-1899-0288D1-nodesc</styleUrl>
        <Point>
          <coordinates>
            -75.157542,39.9781121,0
          </coordinates>
        </Point>
      </Placemark>
      <Placemark>
        <name>Freshëns</name>
        <styleUrl>#icon-1899-0288D1-nodesc</styleUrl>
        <Point>
          <coordinates>
            -75.1575935,39.9782014,0
          </coordinates>
        </Point>
      </Placemark>
      <Placemark>
        <name>honeygrow</name>
        <styleUrl>#icon-1899-0288D1-nodesc</styleUrl>
        <Point>
          <coordinates>
            -75.1573499,39.9784134,0
          </coordinates>
        </Point>
      </Placemark>
      <Placemark>
        <name>Insomnia Cookies</name>
        <styleUrl>#icon-1899-0288D1-nodesc</styleUrl>
        <Point>
          <coordinates>
            -75.1572937,39.9784931,0
          </coordinates>
        </Point>
      </Placemark>
      <Placemark>
        <name>Chop Chop</name>
        <styleUrl>#icon-1899-0288D1-nodesc</styleUrl>
        <Point>
          <coordinates>
            -75.1561511,39.9800103,0
          </coordinates>
        </Point>
      </Placemark>
      <Placemark>
        <name>Old Nelson</name>
        <styleUrl>#icon-1899-0288D1-nodesc</styleUrl>
        <Point>
          <coordinates>
            -75.1530026,39.979458,0
          </coordinates>
        </Point>
      </Placemark>
      <Placemark>
        <name><![CDATA[Richie's Café]]></name>
        <styleUrl>#icon-1899-0288D1-nodesc</styleUrl>
        <Point>
          <coordinates>
            -75.1513832,39.980714,0
          </coordinates>
        </Point>
      </Placemark>
      <Placemark>
        <name>Uncle L’s Barbecue</name>
        <styleUrl>#icon-1899-0288D1-nodesc</styleUrl>
        <Point>
          <coordinates>
            -75.149047,39.9768566,0
          </coordinates>
        </Point>
      </Placemark>
      <Placemark>
        <name>The Turkish Brew</name>
        <styleUrl>#icon-1899-0288D1-nodesc</styleUrl>
        <Point>
          <coordinates>
            -75.1476246,39.9743502,0
          </coordinates>
        </Point>
      </Placemark>
      <Placemark>
        <name><![CDATA[Temple Teppanyaki • Japanese & Korean Food Truck]]></name>
        <styleUrl>#icon-1899-0288D1-nodesc</styleUrl>
        <Point>
          <coordinates>
            -75.1533673,39.9823155,0
          </coordinates>
        </Point>
      </Placemark>
      <Placemark>
        <name>Honey Truck @ Temple University</name>
        <styleUrl>#icon-1899-0288D1-nodesc</styleUrl>
        <Point>
          <coordinates>
            -75.1532888,39.9825212,0
          </coordinates>
        </Point>
      </Placemark>
      <Placemark>
        <name>Penn Halal Gyro 2.0</name>
        <styleUrl>#icon-1899-0288D1-nodesc</styleUrl>
        <Point>
          <coordinates>
            -75.152978,39.982332,0
          </coordinates>
        </Point>
      </Placemark>
      <Placemark>
        <name><![CDATA[The Artist's Pallet Cafe]]></name>
        <styleUrl>#icon-1899-0288D1-nodesc</styleUrl>
        <Point>
          <coordinates>
            -75.1538095,39.9832757,0
          </coordinates>
        </Point>
      </Placemark>
      <Placemark>
        <name>El Guero Taqueria</name>
        <styleUrl>#icon-1899-0288D1-nodesc</styleUrl>
        <Point>
          <coordinates>
            -75.1545582,39.983078,0
          </coordinates>
        </Point>
      </Placemark>
      <Placemark>
        <name>Phillies Halal Food cart</name>
        <styleUrl>#icon-1899-0288D1-nodesc</styleUrl>
        <Point>
          <coordinates>
            -75.1547443,39.9831504,0
          </coordinates>
        </Point>
      </Placemark>
      <Placemark>
        <name>The Crepe Truck Philly</name>
        <styleUrl>#icon-1899-0288D1-nodesc</styleUrl>
        <Point>
          <coordinates>
            -75.1543982,39.9829289,0
          </coordinates>
        </Point>
      </Placemark>
      <Placemark>
        <name>Yummy Phở</name>
        <styleUrl>#icon-1899-0288D1-nodesc</styleUrl>
        <Point>
          <coordinates>
            -75.1571412,39.9837643,0
          </coordinates>
        </Point>
      </Placemark>
      <Placemark>
        <name>Philly Style Pizza and Grill</name>
        <styleUrl>#icon-1899-0288D1-nodesc</styleUrl>
        <Point>
          <coordinates>
            -75.157201,39.983693,0
          </coordinates>
        </Point>
      </Placemark>
      <Placemark>
        <name>Temple Star Chinese Restaurant</name>
        <styleUrl>#icon-1899-0288D1-nodesc</styleUrl>
        <Point>
          <coordinates>
            -75.1572022,39.9847037,0
          </coordinates>
        </Point>
      </Placemark>
      <Placemark>
        <name><![CDATA[McDonald's]]></name>
        <styleUrl>#icon-1899-0288D1-nodesc</styleUrl>
        <Point>
          <coordinates>
            -75.156029,39.985224,0
          </coordinates>
        </Point>
      </Placemark>
      <Placemark>
        <name><![CDATA[Pinky Fresh Fruit Salad & Smoothies]]></name>
        <styleUrl>#icon-1899-0288D1-nodesc</styleUrl>
        <Point>
          <coordinates>
            -75.156328,39.98514,0
          </coordinates>
        </Point>
      </Placemark>
      <Placemark>
        <name>Temple Rainbow</name>
        <styleUrl>#icon-1899-0288D1-nodesc</styleUrl>
        <Point>
          <coordinates>
            -75.1564725,39.9861268,0
          </coordinates>
        </Point>
      </Placemark>
      <Placemark>
        <name>Asia Bite</name>
        <styleUrl>#icon-1899-0288D1-nodesc</styleUrl>
        <Point>
          <coordinates>
            -75.155732,39.9863939,0
          </coordinates>
        </Point>
      </Placemark>
      <Placemark>
        <name><![CDATA[Crown Chicken & Grill]]></name>
        <styleUrl>#icon-1899-0288D1-nodesc</styleUrl>
        <Point>
          <coordinates>
            -75.1559841,39.9863844,0
          </coordinates>
        </Point>
      </Placemark>
      <Placemark>
        <name>Brunch Brothers</name>
        <styleUrl>#icon-1899-0288D1-nodesc</styleUrl>
        <Point>
          <coordinates>
            -75.156093,39.988274,0
          </coordinates>
        </Point>
      </Placemark>
    </Folder>
  </Document>
</kml>
