{
  "type": "FeatureCollection",
  "name": "temple-main-campus-buildings",
  "crs": {
    "type": "name",
    "properties": {
      "name": "urn:ogc:def:crs:OGC:1.3:CRS84"
    }
  },
  "features": [
    {
      "type": "Feature",
      "id": 189162121,
      "properties": {
        "osmId": "way/189162121",
        "name": "1810 Liacouras Walk",
        "label": "1810 Liacouras",
        "category": "academic",
        "buildingType": "university",
        "levels": 4,
        "fill": "#E4E2DC",
        "stroke": "#B8B4AA",
        "labelColor": "#3D3A35"
      },
      "geometry": {
        "type": "Polygon",
        "coordinates": [
          [
            [-75.1565812, 39.980745],
            [-75.156594, 39.9806907],
            [-75.1566883, 39.9802902],
            [-75.15667, 39.9802876],
            [-75.1566744, 39.9802652],
            [-75.1566497, 39.9802613],
            [-75.1566679, 39.9801905],
            [-75.1565341, 39.9801724],
            [-75.1565382, 39.9801607],
            [-75.1563917, 39.980146],
            [-75.1562804, 39.9806334],
            [-75.1563033, 39.980651],
            [-75.1562813, 39.9806976],
            [-75.1565812, 39.980745]
          ]
        ]
      }
    },
    {
      "type": "Feature",
      "id": 682746086,
      "properties": {
        "osmId": "way/682746086",
        "name": "1926-1938 N. Liacouras Walk",
        "label": "Liacouras Walk",
        "category": "other",
        "buildingType": "yes",
        "levels": 3,
        "fill": "#E4E2DC",
        "stroke": "#B8B4AA",
        "labelColor": "#3D3A35"
      },
      "geometry": {
        "type": "Polygon",
        "coordinates": [
          [
            [-75.1561235, 39.982199],
            [-75.1559357, 39.9821785],
            [-75.1558512, 39.9826142],
            [-75.1558891, 39.9826183],
            [-75.1558908, 39.9826085],
            [-75.1559506, 39.9826149],
            [-75.1559545, 39.9826153],
            [-75.1559541, 39.9826207],
            [-75.1560629, 39.9826339],
            [-75.1561063, 39.9824],
            [-75.1561257, 39.9824017],
            [-75.1561311, 39.9823661],
            [-75.1561138, 39.9823648],
            [-75.1561249, 39.982298],
            [-75.1561457, 39.9822997],
            [-75.1561523, 39.9822644],
            [-75.1561094, 39.98226],
            [-75.1561235, 39.982199]
          ]
        ]
      }
    },
    {
      "type": "Feature",
      "id": 134971943,
      "properties": {
        "osmId": "way/134971943",
        "name": "1940 Residence Hall",
        "label": "1940 Residence Hall",
        "category": "housing",
        "buildingType": "dormitory",
        "levels": 6,
        "fill": "#E4E2DC",
        "stroke": "#B8B4AA",
        "labelColor": "#3D3A35"
      },
      "geometry": {
        "type": "Polygon",
        "coordinates": [
          [
            [-75.1557533, 39.9829911],
            [-75.1558351, 39.9826167],
            [-75.1558938, 39.9826242],
            [-75.1558967, 39.9826108],
            [-75.1559496, 39.9826175],
            [-75.1559485, 39.9826228],
            [-75.1562429, 39.9826606],
            [-75.1562567, 39.982651],
            [-75.156315, 39.9826584],
            [-75.1563247, 39.9826723],
            [-75.1566691, 39.9827164],
            [-75.1566541, 39.9827851],
            [-75.1566365, 39.9827829],
            [-75.1566335, 39.9827964],
            [-75.1566479, 39.9828126],
            [-75.1566161, 39.9829582],
            [-75.1566364, 39.9829608],
            [-75.1566391, 39.9829484],
            [-75.1567302, 39.9829601],
            [-75.1567145, 39.9830316],
            [-75.156695, 39.9830291],
            [-75.156692, 39.9830428],
            [-75.1567098, 39.983055],
            [-75.1566971, 39.9831131],
            [-75.1564843, 39.9830858],
            [-75.1564871, 39.9830731],
            [-75.1564692, 39.9830708],
            [-75.1564521, 39.983082],
            [-75.1563775, 39.9830724],
            [-75.1564009, 39.9829649],
            [-75.1564099, 39.9829661],
            [-75.1564381, 39.9828369],
            [-75.1564175, 39.9828343],
            [-75.1564163, 39.9828397],
            [-75.1563315, 39.9828288],
            [-75.1563222, 39.9828743],
            [-75.1562934, 39.9828881],
            [-75.1562357, 39.9828805],
            [-75.1562205, 39.9828639],
            [-75.1561446, 39.9828494],
            [-75.156128, 39.9828335],
            [-75.1561317, 39.9828164],
            [-75.156149, 39.982804],
            [-75.1561349, 39.9828022],
            [-75.1560062, 39.9827857],
            [-75.1559556, 39.9830171],
            [-75.1557533, 39.9829911]
          ]
        ]
      }
    },
    {
      "type": "Feature",
      "id": 10945267,
      "properties": {
        "osmId": "relation/10945267",
        "name": "Anderson Hall",
        "label": "Anderson Hall",
        "category": "academic",
        "buildingType": "university",
        "levels": 12,
        "fill": "#E4E2DC",
        "stroke": "#B8B4AA",
        "labelColor": "#3D3A35"
      },
      "geometry": {
        "type": "Polygon",
        "coordinates": [
          [
            [-75.1531645, 39.9811336],
            [-75.1532662, 39.980648],
            [-75.1529784, 39.9806117],
            [-75.1529854, 39.9805801],
            [-75.1527614, 39.980551],
            [-75.1527509, 39.9805986],
            [-75.1526101, 39.9805803],
            [-75.1525848, 39.9806944],
            [-75.1524297, 39.9806742],
            [-75.1524037, 39.9807915],
            [-75.1522966, 39.9807776],
            [-75.1523322, 39.9806169],
            [-75.1522343, 39.9806041],
            [-75.1522427, 39.9805659],
            [-75.1521126, 39.980549],
            [-75.1520236, 39.9809506],
            [-75.1521213, 39.9809633],
            [-75.1521338, 39.9809069],
            [-75.1521839, 39.9809134],
            [-75.1521773, 39.9809431],
            [-75.1522484, 39.9809523],
            [-75.1522381, 39.9809987],
            [-75.1525763, 39.9810427],
            [-75.1525657, 39.9810835],
            [-75.1527532, 39.9811085],
            [-75.15276, 39.9810786],
            [-75.1530057, 39.9811112],
            [-75.1531645, 39.9811336]
          ],
          [
            [-75.1527898, 39.98092],
            [-75.1526127, 39.9808968],
            [-75.152572, 39.9810789],
            [-75.1527491, 39.9811022],
            [-75.1527898, 39.98092]
          ]
        ]
      }
    },
    {
      "type": "Feature",
      "id": 786026991,
      "properties": {
        "osmId": "way/786026991",
        "name": "Annenberg Hall",
        "label": "Annenberg Hall",
        "category": "academic",
        "buildingType": "university",
        "levels": null,
        "fill": "#E4E2DC",
        "stroke": "#B8B4AA",
        "labelColor": "#3D3A35"
      },
      "geometry": {
        "type": "Polygon",
        "coordinates": [
          [
            [-75.1552759, 39.9838801],
            [-75.1552095, 39.984189],
            [-75.1550502, 39.9841689],
            [-75.1546589, 39.9841194],
            [-75.1547224, 39.9838241],
            [-75.1547977, 39.9838304],
            [-75.154802, 39.9837937],
            [-75.1547326, 39.9837771],
            [-75.1546496, 39.9837654],
            [-75.1548641, 39.9837102],
            [-75.1551968, 39.983751],
            [-75.1551687, 39.9838666],
            [-75.1552759, 39.9838801]
          ]
        ]
      }
    },
    {
      "type": "Feature",
      "id": 337289218,
      "properties": {
        "osmId": "way/337289218",
        "name": "Architecture Building",
        "label": "Architecture",
        "category": "academic",
        "buildingType": "university",
        "levels": null,
        "fill": "#E4E2DC",
        "stroke": "#B8B4AA",
        "labelColor": "#3D3A35"
      },
      "geometry": {
        "type": "Polygon",
        "coordinates": [
          [
            [-75.1542419, 39.9834066],
            [-75.1543039, 39.9834115],
            [-75.1542977, 39.9834524],
            [-75.1543307, 39.9834556],
            [-75.1543199, 39.9835004],
            [-75.1544218, 39.9835137],
            [-75.1544044, 39.9835661],
            [-75.154391, 39.9835631],
            [-75.1543816, 39.9836031],
            [-75.1544044, 39.9836062],
            [-75.1543575, 39.9838128],
            [-75.1540114, 39.9837645],
            [-75.1540611, 39.9835117],
            [-75.1539363, 39.9834624],
            [-75.1539412, 39.9834446],
            [-75.1539603, 39.9833736],
            [-75.1539975, 39.9833783],
            [-75.1540436, 39.9833841],
            [-75.1540335, 39.9834202],
            [-75.1540832, 39.9834266],
            [-75.154236, 39.9834462],
            [-75.1542419, 39.9834066]
          ]
        ]
      }
    },
    {
      "type": "Feature",
      "id": 181926833,
      "properties": {
        "osmId": "way/181926833",
        "name": "Barrack Hall",
        "label": "Barrack Hall",
        "category": "academic",
        "buildingType": "university",
        "levels": 4,
        "fill": "#E4E2DC",
        "stroke": "#B8B4AA",
        "labelColor": "#3D3A35"
      },
      "geometry": {
        "type": "Polygon",
        "coordinates": [
          [
            [-75.1570496, 39.9812863],
            [-75.1570946, 39.9812699],
            [-75.1571201, 39.9811383],
            [-75.1570892, 39.9811096],
            [-75.1570952, 39.9810813],
            [-75.1569499, 39.9810633],
            [-75.1569441, 39.9810907],
            [-75.1568342, 39.9810771],
            [-75.15684, 39.9810495],
            [-75.1567087, 39.9810333],
            [-75.1567248, 39.980957],
            [-75.156647, 39.9809473],
            [-75.1565974, 39.9811825],
            [-75.1566887, 39.9811938],
            [-75.1566788, 39.9812404],
            [-75.1570496, 39.9812863]
          ]
        ]
      }
    },
    {
      "type": "Feature",
      "id": 786048645,
      "properties": {
        "osmId": "way/786048645",
        "name": "Bell Garage",
        "label": "Bell Garage",
        "category": "parking",
        "buildingType": "parking",
        "levels": null,
        "fill": "#E4E2DC",
        "stroke": "#B8B4AA",
        "labelColor": "#3D3A35"
      },
      "geometry": {
        "type": "Polygon",
        "coordinates": [
          [
            [-75.1526327, 39.9802117],
            [-75.1527489, 39.9796831],
            [-75.1523117, 39.979623],
            [-75.1522988, 39.9796859],
            [-75.1522022, 39.980156],
            [-75.1525298, 39.980195],
            [-75.1526327, 39.9802117]
          ]
        ]
      }
    },
    {
      "type": "Feature",
      "id": 786344424,
      "properties": {
        "osmId": "way/786344424",
        "name": "Bell Tower",
        "label": "Bell Tower",
        "category": "landmark",
        "buildingType": "tower",
        "levels": null,
        "fill": "#E4E2DC",
        "stroke": "#B8B4AA",
        "labelColor": "#3D3A35"
      },
      "geometry": {
        "type": "Polygon",
        "coordinates": [
          [
            [-75.1543949, 39.981349],
            [-75.1543496, 39.9813426],
            [-75.1543401, 39.9813816],
            [-75.1543854, 39.981388],
            [-75.1543949, 39.981349]
          ]
        ]
      }
    },
    {
      "type": "Feature",
      "id": 181920697,
      "properties": {
        "osmId": "way/181920697",
        "name": "Beury Hall",
        "label": "Beury Hall",
        "category": "academic",
        "buildingType": "university",
        "levels": 4,
        "fill": "#E4E2DC",
        "stroke": "#B8B4AA",
        "labelColor": "#3D3A35"
      },
      "geometry": {
        "type": "Polygon",
        "coordinates": [
          [
            [-75.1548088, 39.9820657],
            [-75.1548598, 39.9818067],
            [-75.1546635, 39.9818232],
            [-75.1545804, 39.9818212],
            [-75.1544512, 39.9818071],
            [-75.1544302, 39.9818048],
            [-75.1542952, 39.9817502],
            [-75.1542565, 39.9817401],
            [-75.1541888, 39.9817287],
            [-75.1540508, 39.9817262],
            [-75.1540268, 39.9818309],
            [-75.1540041, 39.98193],
            [-75.1540493, 39.9819589],
            [-75.1541141, 39.9819732],
            [-75.154267, 39.9819814],
            [-75.1543636, 39.9819732],
            [-75.1544731, 39.9819758],
            [-75.1544628, 39.9820311],
            [-75.1543551, 39.9820169],
            [-75.1543029, 39.9822491],
            [-75.1543356, 39.9822534],
            [-75.1543275, 39.9822895],
            [-75.1541114, 39.9822622],
            [-75.1540661, 39.98248],
            [-75.154024, 39.9826752],
            [-75.154561, 39.9827432],
            [-75.1546502, 39.9823295],
            [-75.1544922, 39.9823095],
            [-75.1544395, 39.9823043],
            [-75.1544481, 39.982266],
            [-75.1544843, 39.9822707],
            [-75.1545009, 39.9821965],
            [-75.1545156, 39.9821341],
            [-75.1545374, 39.9820413],
            [-75.1544984, 39.9820359],
            [-75.1545079, 39.9819814],
            [-75.1545564, 39.9819911],
            [-75.1546801, 39.9820369],
            [-75.1548088, 39.9820657]
          ]
        ]
      }
    },
    {
      "type": "Feature",
      "id": 181920439,
      "properties": {
        "osmId": "way/181920439",
        "name": "Biology-Life Sciences Building",
        "label": "Bio-Life Sci",
        "category": "academic",
        "buildingType": "university",
        "levels": 4,
        "fill": "#E4E2DC",
        "stroke": "#B8B4AA",
        "labelColor": "#3D3A35"
      },
      "geometry": {
        "type": "Polygon",
        "coordinates": [
          [
            [-75.1537076, 39.9824948],
            [-75.1537244, 39.982414],
            [-75.1537853, 39.9824215],
            [-75.1538897, 39.9819215],
            [-75.1538239, 39.9819134],
            [-75.1538418, 39.9818277],
            [-75.1539309, 39.9818386],
            [-75.1539992, 39.9815117],
            [-75.1539245, 39.9815025],
            [-75.1539411, 39.9814234],
            [-75.1538016, 39.9814063],
            [-75.1537191, 39.9813962],
            [-75.1536254, 39.9813847],
            [-75.1536099, 39.9814591],
            [-75.1535642, 39.9814535],
            [-75.1535027, 39.9817486],
            [-75.1535694, 39.9817568],
            [-75.1535413, 39.9818915],
            [-75.1534644, 39.9818821],
            [-75.1533655, 39.9823561],
            [-75.1534244, 39.9823634],
            [-75.1534183, 39.9823925],
            [-75.153397, 39.9823899],
            [-75.1533834, 39.982455],
            [-75.1537076, 39.9824948]
          ]
        ]
      }
    },
    {
      "type": "Feature",
      "id": 181924454,
      "properties": {
        "osmId": "way/181924454",
        "name": "Carnell Hall",
        "label": "Carnell Hall",
        "category": "academic",
        "buildingType": "university",
        "levels": 10,
        "fill": "#E4E2DC",
        "stroke": "#B8B4AA",
        "labelColor": "#3D3A35"
      },
      "geometry": {
        "type": "Polygon",
        "coordinates": [
          [
            [-75.1568349, 39.9806333],
            [-75.1568425, 39.9805999],
            [-75.1567143, 39.9805821],
            [-75.1567601, 39.9803881],
            [-75.1571118, 39.9804368],
            [-75.1570587, 39.9806637],
            [-75.1569186, 39.9806447],
            [-75.1568349, 39.9806333]
          ]
        ]
      }
    },
    {
      "type": "Feature",
      "id": 708547491,
      "properties": {
        "osmId": "way/708547491",
        "name": "Charles Library",
        "label": "Charles Library",
        "category": "library",
        "buildingType": "yes",
        "levels": 4,
        "fill": "#E4E2DC",
        "stroke": "#B8B4AA",
        "labelColor": "#3D3A35"
      },
      "geometry": {
        "type": "Polygon",
        "coordinates": [
          [
            [-75.1555858, 39.9826581],
            [-75.1556168, 39.9822107],
            [-75.1555595, 39.9821897],
            [-75.1555774, 39.9821229],
            [-75.1556455, 39.9820973],
            [-75.1556598, 39.9820222],
            [-75.155753, 39.9815913],
            [-75.1554091, 39.9815455],
            [-75.1553577, 39.9816462],
            [-75.1553123, 39.9817194],
            [-75.1552526, 39.9817917],
            [-75.1551882, 39.981852],
            [-75.1551034, 39.9819097],
            [-75.1550317, 39.98195],
            [-75.1549828, 39.9826783],
            [-75.1553792, 39.9827496],
            [-75.1554115, 39.9826517],
            [-75.1555858, 39.9826581]
          ]
        ]
      }
    },
    {
      "type": "Feature",
      "id": 181924453,
      "properties": {
        "osmId": "way/181924453",
        "name": "Conwell Hall",
        "label": "Conwell Hall",
        "category": "academic",
        "buildingType": "university",
        "levels": 8,
        "fill": "#E4E2DC",
        "stroke": "#B8B4AA",
        "labelColor": "#3D3A35"
      },
      "geometry": {
        "type": "Polygon",
        "coordinates": [
          [
            [-75.1567601, 39.9803881],
            [-75.1567964, 39.9802148],
            [-75.1572237, 39.9802715],
            [-75.1572344, 39.9802613],
            [-75.1572612, 39.9802643],
            [-75.1572693, 39.9802777],
            [-75.1572585, 39.9802993],
            [-75.1572277, 39.9803116],
            [-75.1572089, 39.9804185],
            [-75.157229, 39.9804257],
            [-75.1572424, 39.9804401],
            [-75.1572371, 39.9804555],
            [-75.157225, 39.9804658],
            [-75.1571982, 39.9804606],
            [-75.1571781, 39.9804473],
            [-75.1571118, 39.9804368],
            [-75.1567601, 39.9803881]
          ]
        ]
      }
    },
    {
      "type": "Feature",
      "id": 424470526,
      "properties": {
        "osmId": "way/424470526",
        "name": "Diamond Green Apartments",
        "label": "Diamond Green",
        "category": "housing",
        "buildingType": "apartments",
        "levels": 5,
        "fill": "#E4E2DC",
        "stroke": "#B8B4AA",
        "labelColor": "#3D3A35"
      },
      "geometry": {
        "type": "Polygon",
        "coordinates": [
          [
            [-75.1502305, 39.9837892],
            [-75.1502491, 39.9837065],
            [-75.1501347, 39.9836914],
            [-75.1501439, 39.9836507],
            [-75.1502584, 39.9836658],
            [-75.1502765, 39.9835852],
            [-75.1501656, 39.9835706],
            [-75.1501732, 39.9835367],
            [-75.1502906, 39.9835521],
            [-75.1503098, 39.9834663],
            [-75.1501954, 39.9834512],
            [-75.1502025, 39.9834197],
            [-75.1503169, 39.9834347],
            [-75.150336, 39.983349],
            [-75.1502212, 39.9833339],
            [-75.1502289, 39.9832995],
            [-75.1503449, 39.9833147],
            [-75.1503644, 39.9832279],
            [-75.1502526, 39.9832132],
            [-75.1502586, 39.9831861],
            [-75.1503724, 39.9832011],
            [-75.1503926, 39.9831108],
            [-75.1501511, 39.983079],
            [-75.1499717, 39.9830554],
            [-75.1499518, 39.9831438],
            [-75.1500645, 39.9831587],
            [-75.1500575, 39.9831899],
            [-75.1499449, 39.9831751],
            [-75.1499255, 39.9832616],
            [-75.150032, 39.9832757],
            [-75.1500244, 39.9833091],
            [-75.1499206, 39.9832954],
            [-75.1499019, 39.9833787],
            [-75.1500123, 39.9833933],
            [-75.1500046, 39.9834277],
            [-75.1498914, 39.9834127],
            [-75.1498722, 39.983498],
            [-75.149985, 39.9835129],
            [-75.1499775, 39.9835461],
            [-75.1498652, 39.9835313],
            [-75.1498463, 39.9836154],
            [-75.149959, 39.9836303],
            [-75.1499514, 39.9836643],
            [-75.1498384, 39.9836494],
            [-75.1498192, 39.9837349],
            [-75.1502305, 39.9837892]
          ]
        ]
      }
    },
    {
      "type": "Feature",
      "id": 181926840,
      "properties": {
        "osmId": "way/181926840",
        "name": "Engineering Building",
        "label": "Engineering",
        "category": "academic",
        "buildingType": "yes",
        "levels": 9,
        "fill": "#E4E2DC",
        "stroke": "#B8B4AA",
        "labelColor": "#3D3A35"
      },
      "geometry": {
        "type": "Polygon",
        "coordinates": [
          [
            [-75.1523914, 39.9824208],
            [-75.1524575, 39.9824298],
            [-75.1524369, 39.9825185],
            [-75.1527447, 39.9825605],
            [-75.1528061, 39.9825689],
            [-75.1527992, 39.9825984],
            [-75.1529998, 39.9826259],
            [-75.1530435, 39.9824381],
            [-75.1531054, 39.9824466],
            [-75.153161, 39.9822074],
            [-75.1528766, 39.9821685],
            [-75.1528593, 39.9822431],
            [-75.1524473, 39.9821868],
            [-75.15243, 39.9822614],
            [-75.1523783, 39.9822543],
            [-75.1523705, 39.9822881],
            [-75.1524206, 39.982295],
            [-75.1523914, 39.9824208]
          ]
        ]
      }
    },
    {
      "type": "Feature",
      "id": 135073212,
      "properties": {
        "osmId": "way/135073212",
        "name": "Fox School of Business",
        "label": "Fox School",
        "category": "academic",
        "buildingType": "university",
        "levels": 7,
        "fill": "#E4E2DC",
        "stroke": "#B8B4AA",
        "labelColor": "#3D3A35"
      },
      "geometry": {
        "type": "Polygon",
        "coordinates": [
          [
            [-75.15609, 39.9805391],
            [-75.1560052, 39.9805291],
            [-75.1555195, 39.9804688],
            [-75.1554386, 39.9804565],
            [-75.1554713, 39.9803113],
            [-75.1555328, 39.980039],
            [-75.1561791, 39.9801213],
            [-75.15609, 39.9805391]
          ]
        ]
      }
    },
    {
      "type": "Feature",
      "id": 10945266,
      "properties": {
        "osmId": "relation/10945266",
        "name": "Gladfelter Hall",
        "label": "Gladfelter Hall",
        "category": "academic",
        "buildingType": "university",
        "levels": 12,
        "fill": "#E4E2DC",
        "stroke": "#B8B4AA",
        "labelColor": "#3D3A35"
      },
      "geometry": {
        "type": "Polygon",
        "coordinates": [
          [
            [-75.1522236, 39.9810691],
            [-75.1521911, 39.9812187],
            [-75.1521633, 39.9813614],
            [-75.1522698, 39.9813756],
            [-75.1522632, 39.9814088],
            [-75.1522839, 39.9814112],
            [-75.1522803, 39.9814281],
            [-75.1522466, 39.9814257],
            [-75.1522256, 39.981519],
            [-75.1522845, 39.9815256],
            [-75.1522891, 39.9815027],
            [-75.1523021, 39.9815042],
            [-75.1522888, 39.9815626],
            [-75.1524278, 39.9815812],
            [-75.1524429, 39.9815148],
            [-75.1524547, 39.9815164],
            [-75.1524272, 39.9816371],
            [-75.1526412, 39.9816658],
            [-75.1526498, 39.9816279],
            [-75.1526716, 39.9816308],
            [-75.1526643, 39.9816631],
            [-75.1528782, 39.9816918],
            [-75.1529064, 39.9815709],
            [-75.1529497, 39.9813724],
            [-75.1529942, 39.981176],
            [-75.1530057, 39.9811112],
            [-75.15276, 39.9810786],
            [-75.1527532, 39.9811085],
            [-75.1525657, 39.9810835],
            [-75.1525763, 39.9810427],
            [-75.1522381, 39.9809987],
            [-75.1522236, 39.9810691]
          ],
          [
            [-75.1526946, 39.9813641],
            [-75.1527339, 39.9811884],
            [-75.1525006, 39.9811577],
            [-75.1524612, 39.9813334],
            [-75.1526946, 39.9813641]
          ]
        ]
      }
    },
    {
      "type": "Feature",
      "id": 134472712,
      "properties": {
        "osmId": "way/134472712",
        "name": "Howard Gittis Student Center",
        "label": "Student Center",
        "category": "student-life",
        "buildingType": "yes",
        "levels": null,
        "fill": "#E4E2DC",
        "stroke": "#B8B4AA",
        "labelColor": "#3D3A35"
      },
      "geometry": {
        "type": "Polygon",
        "coordinates": [
          [
            [-75.1552873, 39.9797321],
            [-75.1553211, 39.9797013],
            [-75.1553413, 39.9796743],
            [-75.1553621, 39.9796415],
            [-75.155373, 39.9796106],
            [-75.1553786, 39.9796108],
            [-75.1553891, 39.9795479],
            [-75.1553208, 39.9795383],
            [-75.1553752, 39.9792965],
            [-75.1553162, 39.9792875],
            [-75.1553373, 39.9792121],
            [-75.1554146, 39.9792223],
            [-75.1554566, 39.9789483],
            [-75.1554213, 39.9789449],
            [-75.1554267, 39.9789162],
            [-75.1553443, 39.9788997],
            [-75.1553377, 39.9789275],
            [-75.1550529, 39.9788943],
            [-75.1550525, 39.9788667],
            [-75.1549747, 39.9788526],
            [-75.1549665, 39.9788861],
            [-75.154929, 39.9788845],
            [-75.1548939, 39.9790601],
            [-75.1548476, 39.9790561],
            [-75.1548372, 39.9791262],
            [-75.1546474, 39.979099],
            [-75.154614, 39.9792398],
            [-75.154664, 39.9792449],
            [-75.1546489, 39.979317],
            [-75.1545719, 39.9793023],
            [-75.1544947, 39.9796473],
            [-75.1546316, 39.979667],
            [-75.1546284, 39.9796865],
            [-75.1546146, 39.9796859],
            [-75.1546005, 39.9797456],
            [-75.1546137, 39.9797462],
            [-75.1546095, 39.9797728],
            [-75.1546773, 39.9797806],
            [-75.1546758, 39.9797915],
            [-75.1548638, 39.9798144],
            [-75.1548665, 39.9798035],
            [-75.1549098, 39.9798217],
            [-75.1549623, 39.9798299],
            [-75.1550232, 39.9798306],
            [-75.1550812, 39.9798242],
            [-75.1550774, 39.9798441],
            [-75.155199, 39.9798585],
            [-75.1552189, 39.9797772],
            [-75.1552523, 39.9797587],
            [-75.1552873, 39.9797321]
          ]
        ]
      }
    },
    {
      "type": "Feature",
      "id": 134972254,
      "properties": {
        "osmId": "way/134972254",
        "name": "Johnson & Hardwick Residence Hall",
        "label": "Johnson & Hardwick",
        "category": "housing",
        "buildingType": "dormitory",
        "levels": 11,
        "fill": "#E4E2DC",
        "stroke": "#B8B4AA",
        "labelColor": "#3D3A35"
      },
      "geometry": {
        "type": "Polygon",
        "coordinates": [
          [
            [-75.1561023, 39.9843548],
            [-75.156142, 39.9841754],
            [-75.1561929, 39.9839411],
            [-75.156234, 39.9837553],
            [-75.1561458, 39.9837439],
            [-75.1561683, 39.9836419],
            [-75.155829, 39.9835979],
            [-75.1558064, 39.9837003],
            [-75.1557556, 39.9836937],
            [-75.1557319, 39.983801],
            [-75.1556979, 39.9837966],
            [-75.1556131, 39.9841805],
            [-75.1554949, 39.9841651],
            [-75.1554385, 39.9844203],
            [-75.1557253, 39.9844574],
            [-75.1557366, 39.9844061],
            [-75.1559099, 39.9844285],
            [-75.1559224, 39.984372],
            [-75.1560055, 39.9843828],
            [-75.1560143, 39.9843434],
            [-75.1561023, 39.9843548]
          ]
        ]
      }
    },
    {
      "type": "Feature",
      "id": 476177960,
      "properties": {
        "osmId": "way/476177960",
        "name": "Kardon Atlantic Apartments",
        "label": "Kardon Atlantic",
        "category": "housing",
        "buildingType": "apartments",
        "levels": 8,
        "fill": "#E4E2DC",
        "stroke": "#B8B4AA",
        "labelColor": "#3D3A35"
      },
      "geometry": {
        "type": "Polygon",
        "coordinates": [
          [
            [-75.1502749, 39.9807676],
            [-75.1504407, 39.9799551],
            [-75.1498627, 39.9798761],
            [-75.1497525, 39.9806914],
            [-75.1502749, 39.9807676]
          ]
        ]
      }
    },
    {
      "type": "Feature",
      "id": 181926830,
      "properties": {
        "osmId": "way/181926830",
        "name": "Klein Law Building",
        "label": "Klein Law",
        "category": "academic",
        "buildingType": "yes",
        "levels": 8,
        "fill": "#E4E2DC",
        "stroke": "#B8B4AA",
        "labelColor": "#3D3A35"
      },
      "geometry": {
        "type": "Polygon",
        "coordinates": [
          [
            [-75.1573263, 39.9801174],
            [-75.1573798, 39.9798967],
            [-75.1573233, 39.9798886],
            [-75.1573413, 39.9798144],
            [-75.1572714, 39.9798045],
            [-75.1572942, 39.9797103],
            [-75.1571306, 39.9796872],
            [-75.1566999, 39.979625],
            [-75.1565899, 39.9796098],
            [-75.156491, 39.9799984],
            [-75.1566042, 39.980014],
            [-75.1570349, 39.9800762],
            [-75.1573263, 39.9801174]
          ]
        ]
      }
    },
    {
      "type": "Feature",
      "id": 181926834,
      "properties": {
        "osmId": "way/181926834",
        "name": "Mitten Hall",
        "label": "Mitten Hall",
        "category": "academic",
        "buildingType": "university",
        "levels": 4,
        "fill": "#E4E2DC",
        "stroke": "#B8B4AA",
        "labelColor": "#3D3A35"
      },
      "geometry": {
        "type": "Polygon",
        "coordinates": [
          [
            [-75.1569699, 39.9817737],
            [-75.156464, 39.9817062],
            [-75.1563786, 39.9820682],
            [-75.1564764, 39.9820835],
            [-75.1564654, 39.9821149],
            [-75.156388, 39.9821044],
            [-75.1563343, 39.9823573],
            [-75.1567739, 39.9824108],
            [-75.1568338, 39.9821459],
            [-75.1567788, 39.9821367],
            [-75.1567864, 39.9820998],
            [-75.1568904, 39.9821135],
            [-75.1569699, 39.9817737]
          ]
        ]
      }
    },
    {
      "type": "Feature",
      "id": 540537143,
      "properties": {
        "osmId": "way/540537143",
        "name": "Montgomery Garage",
        "label": "Montgomery Garage",
        "category": "parking",
        "buildingType": "parking",
        "levels": 5,
        "fill": "#E4E2DC",
        "stroke": "#B8B4AA",
        "labelColor": "#3D3A35"
      },
      "geometry": {
        "type": "Polygon",
        "coordinates": [
          [
            [-75.1518618, 39.9808569],
            [-75.1517778, 39.9808459],
            [-75.1517273, 39.9808394],
            [-75.1517387, 39.9807891],
            [-75.1514517, 39.980751],
            [-75.1512682, 39.9807265],
            [-75.151341, 39.9804051],
            [-75.1515365, 39.9795415],
            [-75.1521407, 39.9796219],
            [-75.1518899, 39.9807306],
            [-75.1518618, 39.9808569]
          ]
        ]
      }
    },
    {
      "type": "Feature",
      "id": 786048661,
      "properties": {
        "osmId": "way/786048661",
        "name": "Norris Apartments",
        "label": "Norris",
        "category": "housing",
        "buildingType": "apartments",
        "levels": null,
        "fill": "#E4E2DC",
        "stroke": "#B8B4AA",
        "labelColor": "#3D3A35"
      },
      "geometry": {
        "type": "Polygon",
        "coordinates": [
          [
            [-75.1512945, 39.9832436],
            [-75.1514187, 39.9826329],
            [-75.1513049, 39.9826193],
            [-75.1511807, 39.98323],
            [-75.1512945, 39.9832436]
          ]
        ]
      }
    },
    {
      "type": "Feature",
      "id": 786048636,
      "properties": {
        "osmId": "way/786048636",
        "name": "Norris Community Center",
        "label": "Norris Community Cen\u2026",
        "category": "academic",
        "buildingType": "yes",
        "levels": null,
        "fill": "#E4E2DC",
        "stroke": "#B8B4AA",
        "labelColor": "#3D3A35"
      },
      "geometry": {
        "type": "Polygon",
        "coordinates": [
          [
            [-75.1517067, 39.9813942],
            [-75.1516171, 39.9813843],
            [-75.1516477, 39.981221],
            [-75.1517373, 39.9812309],
            [-75.1517067, 39.9813942]
          ]
        ]
      }
    },
    {
      "type": "Feature",
      "id": 786048662,
      "properties": {
        "osmId": "way/786048662",
        "name": "Norris Street",
        "label": "Norris Street",
        "category": "housing",
        "buildingType": "apartments",
        "levels": null,
        "fill": "#E4E2DC",
        "stroke": "#B8B4AA",
        "labelColor": "#3D3A35"
      },
      "geometry": {
        "type": "Polygon",
        "coordinates": [
          [
            [-75.1517583, 39.9828872],
            [-75.1515986, 39.9836701],
            [-75.1514473, 39.983652],
            [-75.1516069, 39.9828691],
            [-75.1517583, 39.9828872]
          ]
        ]
      }
    },
    {
      "type": "Feature",
      "id": 12573032,
      "properties": {
        "osmId": "relation/12573032",
        "name": "North Central Community Center",
        "label": "NCCC",
        "category": "academic",
        "buildingType": "yes",
        "levels": null,
        "fill": "#E4E2DC",
        "stroke": "#B8B4AA",
        "labelColor": "#3D3A35"
      },
      "geometry": {
        "type": "MultiPolygon",
        "coordinates": [
          [
            [
              [-75.1519804, 39.9826634],
              [-75.1517117, 39.9826245],
              [-75.1516974, 39.9826826],
              [-75.1516052, 39.9826692],
              [-75.1515668, 39.9828249],
              [-75.1517048, 39.9828449],
              [-75.1517242, 39.9827662],
              [-75.151953, 39.9827985],
              [-75.1519804, 39.9826634]
            ]
          ],
          [
            [
              [-75.151953, 39.9827985],
              [-75.1519796, 39.9826676],
              [-75.1519804, 39.9826634],
              [-75.151953, 39.9827985]
            ]
          ]
        ]
      }
    },
    {
      "type": "Feature",
      "id": 973544567,
      "properties": {
        "osmId": "way/973544567",
        "name": "Owl's Nest",
        "label": "Owl's Nest",
        "category": "student-life",
        "buildingType": "yes",
        "levels": null,
        "fill": "#E4E2DC",
        "stroke": "#B8B4AA",
        "labelColor": "#3D3A35"
      },
      "geometry": {
        "type": "Polygon",
        "coordinates": [
          [
            [-75.1569875, 39.9836982],
            [-75.1569772, 39.9836879],
            [-75.1569811, 39.9836699],
            [-75.1569917, 39.983664],
            [-75.1569955, 39.9836442],
            [-75.1574024, 39.9836973],
            [-75.15739, 39.9837552],
            [-75.1573476, 39.9837498],
            [-75.1573564, 39.9837086],
            [-75.1573122, 39.983703],
            [-75.1573063, 39.9837302],
            [-75.1571086, 39.9837052],
            [-75.1571058, 39.9837182],
            [-75.1569966, 39.9837044],
            [-75.1569875, 39.9836982]
          ]
        ]
      }
    },
    {
      "type": "Feature",
      "id": 134472802,
      "properties": {
        "osmId": "way/134472802",
        "name": "Paley Hall",
        "label": "Paley Hall",
        "category": "academic",
        "buildingType": "yes",
        "levels": 5,
        "fill": "#E4E2DC",
        "stroke": "#B8B4AA",
        "labelColor": "#3D3A35"
      },
      "geometry": {
        "type": "Polygon",
        "coordinates": [
          [
            [-75.1549436, 39.981228],
            [-75.1545661, 39.9811754],
            [-75.1539099, 39.9810826],
            [-75.1539192, 39.9811412],
            [-75.1537042, 39.9811705],
            [-75.1536382, 39.9810864],
            [-75.1537304, 39.9809837],
            [-75.1536757, 39.9807936],
            [-75.1539419, 39.9807762],
            [-75.1539785, 39.980615],
            [-75.155054, 39.980763],
            [-75.1549436, 39.981228]
          ]
        ]
      }
    },
    {
      "type": "Feature",
      "id": 337289220,
      "properties": {
        "osmId": "way/337289220",
        "name": "Paul L. Dunbar School",
        "label": "Dunbar School",
        "category": "academic",
        "buildingType": "school",
        "levels": null,
        "fill": "#E4E2DC",
        "stroke": "#B8B4AA",
        "labelColor": "#3D3A35"
      },
      "geometry": {
        "type": "Polygon",
        "coordinates": [
          [
            [-75.1543756, 39.978818],
            [-75.1542468, 39.979412],
            [-75.1540001, 39.9793832],
            [-75.1541154, 39.978781],
            [-75.1543756, 39.978818]
          ]
        ]
      }
    },
    {
      "type": "Feature",
      "id": 973544571,
      "properties": {
        "osmId": "way/973544571",
        "name": "Philly Style",
        "label": "Philly Style",
        "category": "retail",
        "buildingType": "yes",
        "levels": null,
        "fill": "#E4E2DC",
        "stroke": "#B8B4AA",
        "labelColor": "#3D3A35"
      },
      "geometry": {
        "type": "Polygon",
        "coordinates": [
          [
            [-75.1569516, 39.9838325],
            [-75.1569654, 39.9837781],
            [-75.156973, 39.9837791],
            [-75.1572848, 39.9838198],
            [-75.1572734, 39.9838647],
            [-75.1571556, 39.9838515],
            [-75.1571365, 39.9838612],
            [-75.157109, 39.9838571],
            [-75.1570971, 39.9838427],
            [-75.1570752, 39.9838394],
            [-75.1570724, 39.9838507],
            [-75.1569516, 39.9838325]
          ]
        ]
      }
    },
    {
      "type": "Feature",
      "id": 183996818,
      "properties": {
        "osmId": "way/183996818",
        "name": "Presser Hall",
        "label": "Presser Hall",
        "category": "academic",
        "buildingType": "yes",
        "levels": null,
        "fill": "#E4E2DC",
        "stroke": "#B8B4AA",
        "labelColor": "#3D3A35"
      },
      "geometry": {
        "type": "Polygon",
        "coordinates": [
          [
            [-75.1544778, 39.9834696],
            [-75.1545796, 39.983038],
            [-75.1541287, 39.9829819],
            [-75.154121, 39.983025],
            [-75.1540619, 39.9830174],
            [-75.1539975, 39.9833783],
            [-75.1540436, 39.9833841],
            [-75.1540335, 39.9834202],
            [-75.1540832, 39.9834266],
            [-75.154236, 39.9834462],
            [-75.1542419, 39.9834066],
            [-75.1543039, 39.9834115],
            [-75.1542977, 39.9834524],
            [-75.1543307, 39.9834556],
            [-75.1544778, 39.9834696]
          ]
        ]
      }
    },
    {
      "type": "Feature",
      "id": 488512500,
      "properties": {
        "osmId": "way/488512500",
        "name": "Richie's Cafe",
        "label": "Richie's Cafe",
        "category": "retail",
        "buildingType": "yes",
        "levels": null,
        "fill": "#E4E2DC",
        "stroke": "#B8B4AA",
        "labelColor": "#3D3A35"
      },
      "geometry": {
        "type": "Polygon",
        "coordinates": [
          [
            [-75.1514517, 39.980751],
            [-75.1515112, 39.9804824],
            [-75.1513264, 39.9804584],
            [-75.1512682, 39.9807265],
            [-75.1514517, 39.980751]
          ]
        ]
      }
    },
    {
      "type": "Feature",
      "id": 181924452,
      "properties": {
        "osmId": "way/181924452",
        "name": "Ritter Hall",
        "label": "Ritter Hall",
        "category": "academic",
        "buildingType": "yes",
        "levels": 4,
        "fill": "#E4E2DC",
        "stroke": "#B8B4AA",
        "labelColor": "#3D3A35"
      },
      "geometry": {
        "type": "Polygon",
        "coordinates": [
          [
            [-75.1561922, 39.9797898],
            [-75.1562571, 39.9794924],
            [-75.1559525, 39.9794534],
            [-75.1559811, 39.9793221],
            [-75.1561823, 39.9793479],
            [-75.1562305, 39.9791275],
            [-75.1561433, 39.9791163],
            [-75.1561753, 39.9789699],
            [-75.1560528, 39.9789541],
            [-75.1560206, 39.9791014],
            [-75.1557352, 39.9790648],
            [-75.1556884, 39.9792792],
            [-75.1558791, 39.9793037],
            [-75.1558492, 39.9794405],
            [-75.1557653, 39.9794297],
            [-75.1557004, 39.9797267],
            [-75.1561922, 39.9797898]
          ]
        ]
      }
    },
    {
      "type": "Feature",
      "id": 181924457,
      "properties": {
        "osmId": "way/181924457",
        "name": "Ritter Hall Annex",
        "label": "Ritter Hall Annex",
        "category": "academic",
        "buildingType": "university",
        "levels": 7,
        "fill": "#E4E2DC",
        "stroke": "#B8B4AA",
        "labelColor": "#3D3A35"
      },
      "geometry": {
        "type": "Polygon",
        "coordinates": [
          [
            [-75.1566722, 39.9790529],
            [-75.1566819, 39.9790065],
            [-75.1566727, 39.9790048],
            [-75.1566753, 39.9789922],
            [-75.1566863, 39.978994],
            [-75.1566903, 39.9789751],
            [-75.1566574, 39.9789695],
            [-75.1566718, 39.9789147],
            [-75.1567043, 39.9789153],
            [-75.1567059, 39.9788949],
            [-75.1566953, 39.9788928],
            [-75.1566979, 39.9788816],
            [-75.1567105, 39.9788832],
            [-75.1567164, 39.978841],
            [-75.1566751, 39.9788357],
            [-75.1566574, 39.9788128],
            [-75.1566657, 39.9787831],
            [-75.1565337, 39.9787638],
            [-75.1565314, 39.9787695],
            [-75.156517, 39.9787678],
            [-75.1565174, 39.9787608],
            [-75.1563958, 39.9787437],
            [-75.1564023, 39.9787204],
            [-75.156348, 39.9787139],
            [-75.1563542, 39.9786869],
            [-75.1562992, 39.9786798],
            [-75.1563034, 39.9786588],
            [-75.1561709, 39.9786402],
            [-75.1561699, 39.978646],
            [-75.1561538, 39.9786437],
            [-75.1561552, 39.9786386],
            [-75.1560266, 39.97862],
            [-75.1560199, 39.9786479],
            [-75.1559985, 39.9786661],
            [-75.1559551, 39.9786617],
            [-75.1559424, 39.9786729],
            [-75.1559289, 39.9787401],
            [-75.1559607, 39.9787465],
            [-75.1559523, 39.9787988],
            [-75.1559253, 39.9787958],
            [-75.1559036, 39.9788786],
            [-75.1559431, 39.9788834],
            [-75.1559638, 39.9789],
            [-75.1559591, 39.9789317],
            [-75.1559911, 39.9789388],
            [-75.1559958, 39.9789481],
            [-75.1560528, 39.9789541],
            [-75.1561753, 39.9789699],
            [-75.1562375, 39.9789673],
            [-75.1562408, 39.9789444],
            [-75.156375, 39.978965],
            [-75.1563663, 39.979018],
            [-75.156409, 39.9790198],
            [-75.1564266, 39.9790378],
            [-75.1564215, 39.9790675],
            [-75.1564294, 39.9790727],
            [-75.1564507, 39.9790755],
            [-75.1564559, 39.9790797],
            [-75.1566003, 39.9790929],
            [-75.1566063, 39.9790575],
            [-75.1566302, 39.9790486],
            [-75.1566722, 39.9790529]
          ]
        ]
      }
    },
    {
      "type": "Feature",
      "id": 181926831,
      "properties": {
        "osmId": "way/181926831",
        "name": "Rock Hall",
        "label": "Rock Hall",
        "category": "academic",
        "buildingType": "university",
        "levels": null,
        "fill": "#E4E2DC",
        "stroke": "#B8B4AA",
        "labelColor": "#3D3A35"
      },
      "geometry": {
        "type": "Polygon",
        "coordinates": [
          [
            [-75.1573958, 39.9793617],
            [-75.1573295, 39.9793539],
            [-75.1573329, 39.979337],
            [-75.1570873, 39.9793078],
            [-75.1570824, 39.9793321],
            [-75.156951, 39.9793165],
            [-75.1569928, 39.9791083],
            [-75.1573693, 39.979153],
            [-75.1573664, 39.9791678],
            [-75.1575315, 39.9791874],
            [-75.1574941, 39.9793734],
            [-75.1573958, 39.9793617]
          ]
        ]
      }
    },
    {
      "type": "Feature",
      "id": 188942018,
      "properties": {
        "osmId": "way/188942018",
        "name": "Science, Education and Research Center",
        "label": "SERC",
        "category": "academic",
        "buildingType": "university",
        "levels": 8,
        "fill": "#E4E2DC",
        "stroke": "#B8B4AA",
        "labelColor": "#3D3A35"
      },
      "geometry": {
        "type": "Polygon",
        "coordinates": [
          [
            [-75.1531467, 39.9821984],
            [-75.152765, 39.9821453],
            [-75.1528782, 39.9816918],
            [-75.1529064, 39.9815709],
            [-75.1529497, 39.9813724],
            [-75.1530174, 39.9813819],
            [-75.1530258, 39.9813464],
            [-75.1533066, 39.9813853],
            [-75.1532044, 39.9818175],
            [-75.1532341, 39.9818294],
            [-75.1531467, 39.9821984]
          ]
        ]
      }
    },
    {
      "type": "Feature",
      "id": 181926836,
      "properties": {
        "osmId": "way/181926836",
        "name": "Shusterman Hall",
        "label": "Shusterman Hall",
        "category": "academic",
        "buildingType": "university",
        "levels": null,
        "fill": "#E4E2DC",
        "stroke": "#B8B4AA",
        "labelColor": "#3D3A35"
      },
      "geometry": {
        "type": "Polygon",
        "coordinates": [
          [
            [-75.1565129, 39.981143],
            [-75.1565462, 39.9810057],
            [-75.156287, 39.9809689],
            [-75.1562764, 39.9810128],
            [-75.1562037, 39.9810025],
            [-75.1561811, 39.9810959],
            [-75.1565129, 39.981143]
          ]
        ]
      }
    },
    {
      "type": "Feature",
      "id": 181926841,
      "properties": {
        "osmId": "way/181926841",
        "name": "Speakman Hall",
        "label": "Speakman Hall",
        "category": "academic",
        "buildingType": "university",
        "levels": 3,
        "fill": "#E4E2DC",
        "stroke": "#B8B4AA",
        "labelColor": "#3D3A35"
      },
      "geometry": {
        "type": "Polygon",
        "coordinates": [
          [
            [-75.1559029, 39.9810177],
            [-75.1559074, 39.9809821],
            [-75.1559387, 39.9809855],
            [-75.1559727, 39.9808121],
            [-75.1559943, 39.980814],
            [-75.1560089, 39.9807316],
            [-75.1559904, 39.9807279],
            [-75.1560309, 39.9805587],
            [-75.1560002, 39.9805537],
            [-75.1560052, 39.9805291],
            [-75.1555195, 39.9804688],
            [-75.1555153, 39.9804954],
            [-75.1554871, 39.9804911],
            [-75.1554486, 39.9806585],
            [-75.1554339, 39.9806561],
            [-75.1554157, 39.9807402],
            [-75.1554326, 39.9807421],
            [-75.1553877, 39.9809502],
            [-75.1556146, 39.9809792],
            [-75.1556149, 39.9809942],
            [-75.1556952, 39.9810046],
            [-75.1556973, 39.9809879],
            [-75.1559029, 39.9810177]
          ]
        ]
      }
    },
    {
      "type": "Feature",
      "id": 181926829,
      "properties": {
        "osmId": "way/181926829",
        "name": "Sullivan Hall",
        "label": "Sullivan Hall",
        "category": "academic",
        "buildingType": "university",
        "levels": null,
        "fill": "#E4E2DC",
        "stroke": "#B8B4AA",
        "labelColor": "#3D3A35"
      },
      "geometry": {
        "type": "Polygon",
        "coordinates": [
          [
            [-75.1565082, 39.9811543],
            [-75.1564307, 39.9815151],
            [-75.1561146, 39.9814752],
            [-75.1561921, 39.9811145],
            [-75.1565082, 39.9811543]
          ]
        ]
      }
    },
    {
      "type": "Feature",
      "id": 134472710,
      "properties": {
        "osmId": "way/134472710",
        "name": "TECH Center",
        "label": "TECH Center",
        "category": "academic",
        "buildingType": "yes",
        "levels": null,
        "fill": "#E4E2DC",
        "stroke": "#B8B4AA",
        "labelColor": "#3D3A35"
      },
      "geometry": {
        "type": "Polygon",
        "coordinates": [
          [
            [-75.1534815, 39.980513],
            [-75.1526439, 39.980408],
            [-75.1526854, 39.9802142],
            [-75.1527125, 39.9802167],
            [-75.1527169, 39.9801889],
            [-75.1526906, 39.9801868],
            [-75.1527093, 39.9801002],
            [-75.1527464, 39.980104],
            [-75.1527925, 39.9798767],
            [-75.1527626, 39.9798709],
            [-75.1527764, 39.9797964],
            [-75.1528148, 39.9797996],
            [-75.1528338, 39.9797205],
            [-75.1536339, 39.9798163],
            [-75.1534815, 39.980513]
          ]
        ]
      }
    },
    {
      "type": "Feature",
      "id": 181926832,
      "properties": {
        "osmId": "way/181926832",
        "name": "Temple Performing Arts Center",
        "label": "TPAC",
        "category": "academic",
        "buildingType": "university",
        "levels": null,
        "fill": "#E4E2DC",
        "stroke": "#B8B4AA",
        "labelColor": "#3D3A35"
      },
      "geometry": {
        "type": "Polygon",
        "coordinates": [
          [
            [-75.1570477, 39.981622],
            [-75.1571093, 39.981327],
            [-75.1565793, 39.981262],
            [-75.1565177, 39.9815569],
            [-75.1570477, 39.981622]
          ]
        ]
      }
    },
    {
      "type": "Feature",
      "id": 337636307,
      "properties": {
        "osmId": "way/337636307",
        "name": "Temple University Facilities Management",
        "label": "Facilities",
        "category": "other",
        "buildingType": "yes",
        "levels": null,
        "fill": "#E4E2DC",
        "stroke": "#B8B4AA",
        "labelColor": "#3D3A35"
      },
      "geometry": {
        "type": "Polygon",
        "coordinates": [
          [
            [-75.1510651, 39.9807796],
            [-75.1513291, 39.9795963],
            [-75.1510425, 39.9795587],
            [-75.150913, 39.9801392],
            [-75.1508, 39.9801244],
            [-75.1508989, 39.9796814],
            [-75.1507064, 39.9796562],
            [-75.150473, 39.980702],
            [-75.1510651, 39.9807796]
          ]
        ]
      }
    },
    {
      "type": "Feature",
      "id": 472821536,
      "properties": {
        "osmId": "way/472821536",
        "name": "The View Apartment Housing",
        "label": "The View",
        "category": "housing",
        "buildingType": "apartments",
        "levels": 14,
        "fill": "#E4E2DC",
        "stroke": "#B8B4AA",
        "labelColor": "#3D3A35"
      },
      "geometry": {
        "type": "Polygon",
        "coordinates": [
          [
            [-75.1537049, 39.9796477],
            [-75.153771, 39.9795161],
            [-75.1537088, 39.9794996],
            [-75.1536738, 39.9794439],
            [-75.153698, 39.9793845],
            [-75.1531984, 39.9792556],
            [-75.1531505, 39.9793518],
            [-75.1528686, 39.9792727],
            [-75.1528367, 39.9792638],
            [-75.152848, 39.9791837],
            [-75.1527004, 39.9791681],
            [-75.1526756, 39.9792842],
            [-75.152406, 39.9792498],
            [-75.1523964, 39.9793183],
            [-75.1523739, 39.9794784],
            [-75.1529331, 39.9795457],
            [-75.1529388, 39.9795464],
            [-75.1529653, 39.9794503],
            [-75.1537049, 39.9796477]
          ]
        ]
      }
    },
    {
      "type": "Feature",
      "id": 181927186,
      "properties": {
        "osmId": "way/181927186",
        "name": "Tomlinson Theater/Randall Theater",
        "label": "Tomlinson",
        "category": "academic",
        "buildingType": "university",
        "levels": null,
        "fill": "#E4E2DC",
        "stroke": "#B8B4AA",
        "labelColor": "#3D3A35"
      },
      "geometry": {
        "type": "Polygon",
        "coordinates": [
          [
            [-75.1548641, 39.9837102],
            [-75.1551968, 39.983751],
            [-75.1552193, 39.9836433],
            [-75.1554081, 39.9836665],
            [-75.1554402, 39.9835127],
            [-75.1552501, 39.9834894],
            [-75.1553048, 39.9832275],
            [-75.154999, 39.98319],
            [-75.1549423, 39.9834509],
            [-75.1547418, 39.9834253],
            [-75.1547039, 39.9835899],
            [-75.1548636, 39.9836095],
            [-75.1548431, 39.9837076],
            [-75.1548641, 39.9837102]
          ]
        ]
      }
    },
    {
      "type": "Feature",
      "id": 135073211,
      "properties": {
        "osmId": "way/135073211",
        "name": "Tuttleman Learning Center",
        "label": "Tuttleman",
        "category": "academic",
        "buildingType": "yes",
        "levels": 4,
        "fill": "#E4E2DC",
        "stroke": "#B8B4AA",
        "labelColor": "#3D3A35"
      },
      "geometry": {
        "type": "Polygon",
        "coordinates": [
          [
            [-75.155016, 39.9799976],
            [-75.1549925, 39.9801083],
            [-75.1551377, 39.9801264],
            [-75.1550412, 39.9805803],
            [-75.1550148, 39.980705],
            [-75.1546379, 39.9806594],
            [-75.1546522, 39.9805947],
            [-75.1541652, 39.980534],
            [-75.1541879, 39.980427],
            [-75.1539989, 39.9804035],
            [-75.1540185, 39.9803109],
            [-75.1547754, 39.9804052],
            [-75.1548659, 39.9799788],
            [-75.155016, 39.9799976]
          ]
        ]
      }
    },
    {
      "type": "Feature",
      "id": 183996820,
      "properties": {
        "osmId": "way/183996820",
        "name": "Tyler School of Art",
        "label": "Tyler School of Art",
        "category": "academic",
        "buildingType": "yes",
        "levels": null,
        "fill": "#E4E2DC",
        "stroke": "#B8B4AA",
        "labelColor": "#3D3A35"
      },
      "geometry": {
        "type": "Polygon",
        "coordinates": [
          [
            [-75.1539028, 39.9841685],
            [-75.153975, 39.9838381],
            [-75.153548, 39.9837833],
            [-75.1536466, 39.9833325],
            [-75.1539603, 39.9833736],
            [-75.1539975, 39.9833783],
            [-75.1540458, 39.9830965],
            [-75.1539786, 39.9830876],
            [-75.1538493, 39.9830713],
            [-75.1537912, 39.9830639],
            [-75.1538034, 39.9830083],
            [-75.1538105, 39.9829758],
            [-75.1532793, 39.9829076],
            [-75.1530282, 39.9840562],
            [-75.1539028, 39.9841685]
          ]
        ]
      }
    },
    {
      "type": "Feature",
      "id": 337636287,
      "properties": {
        "osmId": "way/337636287",
        "name": "University Village",
        "label": "University Village",
        "category": "housing",
        "buildingType": "yes",
        "levels": 6,
        "fill": "#E4E2DC",
        "stroke": "#B8B4AA",
        "labelColor": "#3D3A35"
      },
      "geometry": {
        "type": "Polygon",
        "coordinates": [
          [
            [-75.1502463, 39.9792153],
            [-75.150532, 39.9779399],
            [-75.1506983, 39.9779625],
            [-75.1506232, 39.978277],
            [-75.1507895, 39.9783017],
            [-75.1508807, 39.9778844],
            [-75.150363, 39.9778248],
            [-75.1500626, 39.9791875],
            [-75.1502463, 39.9792153]
          ]
        ]
      }
    },
    {
      "type": "Feature",
      "id": 708547492,
      "properties": {
        "osmId": "way/708547492",
        "name": "Vantage",
        "label": "Vantage",
        "category": "housing",
        "buildingType": "apartments",
        "levels": 17,
        "fill": "#E4E2DC",
        "stroke": "#B8B4AA",
        "labelColor": "#3D3A35"
      },
      "geometry": {
        "type": "Polygon",
        "coordinates": [
          [
            [-75.1535401, 39.979021],
            [-75.1536167, 39.9788691],
            [-75.1536691, 39.978885],
            [-75.1538033, 39.9786159],
            [-75.1538365, 39.9786266],
            [-75.1539869, 39.9783512],
            [-75.1535663, 39.9782228],
            [-75.1535486, 39.9782562],
            [-75.153514, 39.978326],
            [-75.1533717, 39.9785893],
            [-75.1532493, 39.9788039],
            [-75.1531401, 39.9787694],
            [-75.1529211, 39.9787001],
            [-75.1528132, 39.9786652],
            [-75.1528996, 39.9782481],
            [-75.1529263, 39.9781475],
            [-75.1527254, 39.97812],
            [-75.15257, 39.9787984],
            [-75.1527128, 39.9788635],
            [-75.1527287, 39.9788017],
            [-75.1528755, 39.9788496],
            [-75.1530658, 39.9789064],
            [-75.1532335, 39.9789548],
            [-75.1534389, 39.979012],
            [-75.1534472, 39.9789952],
            [-75.1535401, 39.979021]
          ]
        ]
      }
    },
    {
      "type": "Feature",
      "id": 181924456,
      "properties": {
        "osmId": "way/181924456",
        "name": "Wachman Hall",
        "label": "Wachman Hall",
        "category": "academic",
        "buildingType": "university",
        "levels": 10,
        "fill": "#E4E2DC",
        "stroke": "#B8B4AA",
        "labelColor": "#3D3A35"
      },
      "geometry": {
        "type": "Polygon",
        "coordinates": [
          [
            [-75.1571061, 39.981046],
            [-75.157164, 39.9807958],
            [-75.1570323, 39.9807779],
            [-75.1570587, 39.9806637],
            [-75.1569186, 39.9806447],
            [-75.1568349, 39.9806333],
            [-75.1568195, 39.9806999],
            [-75.1568671, 39.9807064],
            [-75.1568543, 39.9807617],
            [-75.1568252, 39.9807577],
            [-75.1567691, 39.9810002],
            [-75.1571061, 39.981046]
          ]
        ]
      }
    },
    {
      "type": "Feature",
      "id": 973544570,
      "properties": {
        "osmId": "way/973544570",
        "name": "Yummy Pho",
        "label": "Yummy Pho",
        "category": "retail",
        "buildingType": "yes",
        "levels": null,
        "fill": "#E4E2DC",
        "stroke": "#B8B4AA",
        "labelColor": "#3D3A35"
      },
      "geometry": {
        "type": "Polygon",
        "coordinates": [
          [
            [-75.1572848, 39.9838198],
            [-75.156973, 39.9837791],
            [-75.1569769, 39.9837639],
            [-75.1569651, 39.9837523],
            [-75.1569698, 39.9837339],
            [-75.1569829, 39.9837285],
            [-75.156985, 39.9837203],
            [-75.1570542, 39.9837306],
            [-75.1570612, 39.9837181],
            [-75.1570897, 39.9837224],
            [-75.1570897, 39.9837289],
            [-75.1570939, 39.9837295],
            [-75.1570958, 39.9837223],
            [-75.1571682, 39.9837332],
            [-75.1571649, 39.9837458],
            [-75.1571777, 39.9837477],
            [-75.1571787, 39.9837438],
            [-75.1572438, 39.9837535],
            [-75.1572416, 39.9837624],
            [-75.1572545, 39.9837644],
            [-75.1572539, 39.983767],
            [-75.1572655, 39.9837688],
            [-75.1572669, 39.9837631],
            [-75.1573129, 39.98377],
            [-75.1572998, 39.9838219],
            [-75.1572848, 39.9838198]
          ]
        ]
      }
    },
    {
      "type": "Feature",
      "id": 335244610,
      "properties": {
        "osmId": "way/335244610",
        "name": "Morgan Hall North",
        "label": "Morgan North",
        "category": "housing",
        "buildingType": "dormitory",
        "levels": 27,
        "fill": "#E4E2DC",
        "stroke": "#B8B4AA",
        "labelColor": "#3D3A35"
      },
      "geometry": {
        "type": "Polygon",
        "coordinates": [
          [
            [-75.1578958, 39.9776274],
            [-75.1577863, 39.9782072],
            [-75.1577689, 39.9782051],
            [-75.1577629, 39.9782343],
            [-75.1577059, 39.9782274],
            [-75.1576843, 39.9783417],
            [-75.1576717, 39.9784081],
            [-75.1577284, 39.9784156],
            [-75.1577017, 39.9785216],
            [-75.1576155, 39.9785103],
            [-75.1576157, 39.9784991],
            [-75.1570403, 39.9784349],
            [-75.1570606, 39.9783356],
            [-75.1571093, 39.9783347],
            [-75.1571224, 39.9782712],
            [-75.1574504, 39.9783157],
            [-75.1574819, 39.9781927],
            [-75.1575015, 39.9781943],
            [-75.1575901, 39.9777971],
            [-75.1576744, 39.9778106],
            [-75.1576955, 39.9776784],
            [-75.1577257, 39.9776806],
            [-75.1577348, 39.9776381],
            [-75.1578299, 39.9776482],
            [-75.157834, 39.9776218],
            [-75.1578617, 39.9776243],
            [-75.1578958, 39.9776274]
          ]
        ]
      }
    },
    {
      "type": "Feature",
      "id": 335244609,
      "properties": {
        "osmId": "way/335244609",
        "name": "Morgan Hall South",
        "label": "Morgan South",
        "category": "housing",
        "buildingType": "dormitory",
        "levels": 10,
        "fill": "#E4E2DC",
        "stroke": "#B8B4AA",
        "labelColor": "#3D3A35"
      },
      "geometry": {
        "type": "Polygon",
        "coordinates": [
          [
            [-75.1578586, 39.9774223],
            [-75.1578764, 39.9773224],
            [-75.1571246, 39.9772175],
            [-75.1569139, 39.9781955],
            [-75.1570476, 39.9782132],
            [-75.1570625, 39.9781456],
            [-75.1571443, 39.9781507],
            [-75.157306, 39.9774135],
            [-75.1577929, 39.9774759],
            [-75.1578018, 39.977416],
            [-75.1578586, 39.9774223]
          ]
        ]
      }
    },
    {
      "type": "Feature",
      "id": 192989617,
      "properties": {
        "osmId": "way/192989617",
        "name": "1300 Residence Hall",
        "label": "1300",
        "category": "housing",
        "buildingType": "dormitory",
        "levels": 5,
        "fill": "#E4E2DC",
        "stroke": "#B8B4AA",
        "labelColor": "#3D3A35"
      },
      "geometry": {
        "type": "Polygon",
        "coordinates": [
          [
            [-75.1566913, 39.9783859],
            [-75.1567572, 39.9780793],
            [-75.1567344, 39.9780775],
            [-75.1567732, 39.9778858],
            [-75.1566579, 39.9778753],
            [-75.1566687, 39.9778195],
            [-75.1566156, 39.9778134],
            [-75.1565578, 39.9778067],
            [-75.1565822, 39.9777837],
            [-75.1566022, 39.977749],
            [-75.1566104, 39.9777111],
            [-75.1566371, 39.9777169],
            [-75.1566891, 39.9777282],
            [-75.1567014, 39.9776672],
            [-75.1567162, 39.9776686],
            [-75.1567151, 39.9776793],
            [-75.1568162, 39.9776926],
            [-75.1568603, 39.977497],
            [-75.1568827, 39.977497],
            [-75.1569537, 39.9771965],
            [-75.1566043, 39.9771539],
            [-75.1565913, 39.9772279],
            [-75.1566025, 39.9772403],
            [-75.1566012, 39.9772471],
            [-75.1565901, 39.9772571],
            [-75.1565774, 39.9773176],
            [-75.1566893, 39.9773324],
            [-75.1566745, 39.9774301],
            [-75.1566501, 39.977432],
            [-75.1566104, 39.9776101],
            [-75.1565935, 39.9776076],
            [-75.1565986, 39.9775838],
            [-75.1565118, 39.9775698],
            [-75.1565052, 39.9775923],
            [-75.1564898, 39.9775876],
            [-75.1565017, 39.9775628],
            [-75.1564089, 39.9775371],
            [-75.1563938, 39.9775824],
            [-75.1563733, 39.9775774],
            [-75.1563773, 39.9775584],
            [-75.1562937, 39.9775442],
            [-75.1562846, 39.9775718],
            [-75.1562634, 39.9775686],
            [-75.1563035, 39.9773905],
            [-75.1562819, 39.977388],
            [-75.1563033, 39.9772736],
            [-75.1563288, 39.9772763],
            [-75.1563341, 39.9772832],
            [-75.1564202, 39.9772938],
            [-75.1564342, 39.9772349],
            [-75.1564177, 39.9772199],
            [-75.1564204, 39.9772078],
            [-75.1564485, 39.9772126],
            [-75.1564571, 39.977138],
            [-75.1561238, 39.9770895],
            [-75.1560562, 39.9773953],
            [-75.1560746, 39.9773971],
            [-75.1560356, 39.9775945],
            [-75.1561479, 39.9776092],
            [-75.1561387, 39.9776617],
            [-75.1561912, 39.97767],
            [-75.1562317, 39.9776764],
            [-75.1562173, 39.9776973],
            [-75.156205, 39.9777246],
            [-75.1561981, 39.977758],
            [-75.1561252, 39.9777486],
            [-75.1561071, 39.9778006],
            [-75.1559994, 39.9777838],
            [-75.1559518, 39.9779701],
            [-75.1559248, 39.9779796],
            [-75.1558659, 39.9782805],
            [-75.156078, 39.9783054],
            [-75.1561325, 39.9780402],
            [-75.156161, 39.9780419],
            [-75.1561984, 39.9778622],
            [-75.1562138, 39.9778647],
            [-75.1562075, 39.9778929],
            [-75.1563034, 39.9779048],
            [-75.1563089, 39.9778717],
            [-75.1563297, 39.9778803],
            [-75.1563108, 39.9779108],
            [-75.1563937, 39.977935],
            [-75.156418, 39.9778916],
            [-75.156434, 39.9778947],
            [-75.1564285, 39.9779193],
            [-75.1565201, 39.9779299],
            [-75.1565243, 39.9779054],
            [-75.156545, 39.9779078],
            [-75.1565043, 39.9780908],
            [-75.1565278, 39.978092],
            [-75.1564713, 39.9783566],
            [-75.1566913, 39.9783859]
          ]
        ]
      }
    },
    {
      "type": "Feature",
      "id": 192989616,
      "properties": {
        "osmId": "way/192989616",
        "name": "Temple Towers Residence Hall",
        "label": "Temple Towers",
        "category": "housing",
        "buildingType": "dormitory",
        "levels": 6,
        "fill": "#E4E2DC",
        "stroke": "#B8B4AA",
        "labelColor": "#3D3A35"
      },
      "geometry": {
        "type": "Polygon",
        "coordinates": [
          [
            [-75.1556414, 39.9781371],
            [-75.1557028, 39.9778776],
            [-75.1556629, 39.9778722],
            [-75.1556794, 39.977808],
            [-75.1556333, 39.9778033],
            [-75.1556385, 39.9777739],
            [-75.1554901, 39.9777545],
            [-75.1554848, 39.9777812],
            [-75.1554422, 39.9777746],
            [-75.1554152, 39.9779119],
            [-75.1554498, 39.9779156],
            [-75.1554372, 39.9779842],
            [-75.1554276, 39.9780362],
            [-75.1552629, 39.9780166],
            [-75.1552699, 39.9779902],
            [-75.1550977, 39.9779651],
            [-75.1550919, 39.9779978],
            [-75.1550522, 39.9779927],
            [-75.1550586, 39.9779578],
            [-75.1549208, 39.977939],
            [-75.1549137, 39.9779766],
            [-75.1548739, 39.9779707],
            [-75.1548801, 39.9779383],
            [-75.1547082, 39.9779162],
            [-75.1547003, 39.9779438],
            [-75.1545445, 39.977923],
            [-75.1545533, 39.9778729],
            [-75.1545663, 39.9778015],
            [-75.1546034, 39.9778062],
            [-75.1546336, 39.9776762],
            [-75.1545919, 39.9776677],
            [-75.1545992, 39.9776373],
            [-75.1544557, 39.9776162],
            [-75.1544486, 39.9776511],
            [-75.154401, 39.9776456],
            [-75.1543886, 39.9777081],
            [-75.1543533, 39.977703],
            [-75.1542964, 39.9779623],
            [-75.1543477, 39.97797],
            [-75.1543258, 39.9780454],
            [-75.1544244, 39.9780533],
            [-75.1544128, 39.9780958],
            [-75.1547534, 39.9781409],
            [-75.1547599, 39.9781098],
            [-75.1548419, 39.9781192],
            [-75.1548481, 39.9780858],
            [-75.1548925, 39.9780915],
            [-75.1548845, 39.9781285],
            [-75.1550111, 39.9781449],
            [-75.155019, 39.9781089],
            [-75.1550665, 39.978115],
            [-75.1550583, 39.9781463],
            [-75.1551423, 39.9781574],
            [-75.1551364, 39.97819],
            [-75.1554698, 39.9782343],
            [-75.1554796, 39.978188],
            [-75.1555175, 39.9781925],
            [-75.1555191, 39.9781996],
            [-75.155583, 39.9782084],
            [-75.1555909, 39.9781603],
            [-75.1555835, 39.9781567],
            [-75.1555894, 39.9781282],
            [-75.1556414, 39.9781371]
          ]
        ]
      }
    },
    {
      "type": "Feature",
      "id": 543968021,
      "properties": {
        "osmId": "way/543968021",
        "name": "Aramark STAR Complex",
        "label": "STAR",
        "category": "student-life",
        "buildingType": "yes",
        "levels": 3,
        "fill": "#E4E2DC",
        "stroke": "#B8B4AA",
        "labelColor": "#3D3A35"
      },
      "geometry": {
        "type": "Polygon",
        "coordinates": [
          [
            [-75.1600319, 39.9815684],
            [-75.1592359, 39.9814665],
            [-75.159248, 39.9814049],
            [-75.1591678, 39.9813953],
            [-75.1593217, 39.9807003],
            [-75.1594955, 39.9806318],
            [-75.1602102, 39.9807174],
            [-75.1600319, 39.9815684]
          ]
        ]
      }
    },
    {
      "type": "Feature",
      "id": 706495412,
      "properties": {
        "osmId": "way/706495412",
        "name": "Independence Blue Cross Student Recreation Center",
        "label": "IBC",
        "category": "student-life",
        "buildingType": "yes",
        "levels": null,
        "fill": "#E4E2DC",
        "stroke": "#B8B4AA",
        "labelColor": "#3D3A35"
      },
      "geometry": {
        "type": "Polygon",
        "coordinates": [
          [
            [-75.1591621, 39.9794945],
            [-75.1591724, 39.9794465],
            [-75.1592062, 39.9794508],
            [-75.1592225, 39.9793752],
            [-75.1592275, 39.9793525],
            [-75.1592322, 39.9793313],
            [-75.1592339, 39.9793235],
            [-75.1591956, 39.9793186],
            [-75.1592148, 39.9792296],
            [-75.1592569, 39.979235],
            [-75.1593123, 39.9789777],
            [-75.1587202, 39.9789028],
            [-75.1586801, 39.9790892],
            [-75.1587884, 39.9791029],
            [-75.1587529, 39.9792676],
            [-75.1590793, 39.9793089],
            [-75.1590426, 39.9794794],
            [-75.1591621, 39.9794945]
          ]
        ]
      }
    },
    {
      "type": "Feature",
      "id": 183996822,
      "properties": {
        "osmId": "way/183996822",
        "name": "Pearson McGonigle Hall",
        "label": "Pearson Hall",
        "category": "academic",
        "buildingType": "university",
        "levels": null,
        "fill": "#E4E2DC",
        "stroke": "#B8B4AA",
        "labelColor": "#3D3A35"
      },
      "geometry": {
        "type": "Polygon",
        "coordinates": [
          [
            [-75.1589125, 39.9813436],
            [-75.1590168, 39.9808889],
            [-75.1590493, 39.980889],
            [-75.1591391, 39.9804957],
            [-75.157862, 39.9803349],
            [-75.1578518, 39.9803774],
            [-75.1577159, 39.9803582],
            [-75.1575516, 39.9810919],
            [-75.1576288, 39.9811011],
            [-75.1576246, 39.9811301],
            [-75.1578452, 39.981195],
            [-75.1582315, 39.9812408],
            [-75.1584102, 39.9812268],
            [-75.1584018, 39.9812812],
            [-75.1589125, 39.9813436]
          ]
        ]
      }
    },
    {
      "type": "Feature",
      "id": 540537145,
      "properties": {
        "osmId": "way/540537145",
        "name": "Liacouras Center",
        "label": "Liacouras Center",
        "category": "landmark",
        "buildingType": "yes",
        "levels": 1,
        "fill": "#E4E2DC",
        "stroke": "#B8B4AA",
        "labelColor": "#3D3A35"
      },
      "geometry": {
        "type": "Polygon",
        "coordinates": [
          [
            [-75.1590189, 39.980344],
            [-75.1590299, 39.9803016],
            [-75.1591612, 39.9803169],
            [-75.1592005, 39.9801679],
            [-75.1591778, 39.9801661],
            [-75.1592317, 39.9800415],
            [-75.1592588, 39.9798768],
            [-75.15926, 39.9797483],
            [-75.1592932, 39.979751],
            [-75.1593259, 39.9795933],
            [-75.1592087, 39.979578],
            [-75.1592262, 39.9795042],
            [-75.1591621, 39.9794945],
            [-75.1590426, 39.9794794],
            [-75.1582011, 39.9793752],
            [-75.1581869, 39.9794244],
            [-75.1579903, 39.9793983],
            [-75.1578375, 39.9801487],
            [-75.1580323, 39.9801714],
            [-75.1580243, 39.9802136],
            [-75.1590189, 39.980344]
          ]
        ]
      }
    },
    {
      "type": "Feature",
      "id": 335063501,
      "properties": {
        "osmId": "way/335063501",
        "name": "Geasey Field",
        "label": "Geasey Field",
        "category": "other",
        "buildingType": "yes",
        "levels": null,
        "fill": "#E4E2DC",
        "stroke": "#B8B4AA",
        "labelColor": "#3D3A35",
        "fillOpacity": 0.55
      },
      "geometry": {
        "type": "Polygon",
        "coordinates": [
          [
            [-75.1603007, 39.9824062],
            [-75.1600682, 39.9834586],
            [-75.1587488, 39.9832874],
            [-75.1589813, 39.982235],
            [-75.1603007, 39.9824062]
          ]
        ]
      }
    },
    {
      "type": "Feature",
      "id": 682913623,
      "properties": {
        "osmId": "way/682913623",
        "name": "Temple University Sports Complex",
        "label": "Sports Complex",
        "category": "other",
        "buildingType": "yes",
        "levels": null,
        "fill": "#E4E2DC",
        "stroke": "#B8B4AA",
        "labelColor": "#3D3A35"
      },
      "geometry": {
        "type": "Polygon",
        "coordinates": [
          [
            [-75.1578697, 39.9727115],
            [-75.15792, 39.9724965],
            [-75.1573656, 39.9724202],
            [-75.1573152, 39.9726352],
            [-75.1578697, 39.9727115]
          ]
        ]
      }
    },
    {
      "type": "Feature",
      "id": 682913622,
      "properties": {
        "osmId": "way/682913622",
        "name": "Temple University Sports Complex Fields",
        "label": "Sports Fields",
        "category": "other",
        "buildingType": "yes",
        "levels": null,
        "fill": "#E4E2DC",
        "stroke": "#B8B4AA",
        "labelColor": "#3D3A35",
        "fillOpacity": 0.45
      },
      "geometry": {
        "type": "Polygon",
        "coordinates": [
          [
            [-75.1588559, 39.9732651],
            [-75.1586056, 39.9743946],
            [-75.1578851, 39.9743004],
            [-75.1567571, 39.9741343],
            [-75.1573755, 39.9713699],
            [-75.1584796, 39.9715149],
            [-75.1581103, 39.9731663],
            [-75.1588559, 39.9732651]
          ]
        ]
      }
    },
    {
      "type": "Feature",
      "id": 450683442,
      "properties": {
        "osmId": "way/450683442",
        "name": "Caroline Kimmel Pavilion (under construction)",
        "label": "New Klein",
        "category": "academic",
        "buildingType": "construction",
        "levels": null,
        "fill": "#E4E2DC",
        "stroke": "#B8B4AA",
        "labelColor": "#3D3A35",
        "fillOpacity": 0.7
      },
      "geometry": {
        "type": "Polygon",
        "coordinates": [
          [
            [-75.15876, 39.9818432],
            [-75.158776, 39.9817778],
            [-75.1588691, 39.9813977],
            [-75.1575463, 39.9812075],
            [-75.1574372, 39.981653],
            [-75.15876, 39.9818432]
          ]
        ]
      }
    }
  ]
}
